ONEWEB-0415             
1 51624U 22012C   24136.88548553  .00000314  00000+0  86276-3 0  9996
2 51624  87.8968 187.8083 0002386  90.8503 269.2898 13.10378252109450
ONEWEB-0416             
1 51625U 22012D   24136.89711438  .00000684  00000+0  19234-2 0  9991
2 51625  87.8972 187.7989 0002037  96.2746 263.8613 13.10375529109495
ONEWEB-0422             
1 51626U 22012E   24136.60034825 -.00000047  00000+0 -15337-3 0  9995
2 51626  87.9171 157.6301 0002327 111.9375 248.2004 13.17650430113385
ONEWEB-0423             
1 51627U 22012F   24136.59402901 -.00000017  00000+0 -77221-4 0  9996
2 51627  87.9172 157.6318 0001954  94.5712 265.5642 13.17650042113278
ONEWEB-0425             
1 51628U 22012G   24136.90707098  .00000621  00000+0  17417-2 0  9995
2 51628  87.8964 187.7817 0001658  96.0300 264.1016 13.10372323109491
ONEWEB-0428             
1 51629U 22012H   24136.88714809  .00000350  00000+0  96561-3 0  9998
2 51629  87.8972 187.8004 0002374 100.8249 259.3146 13.10375586109452
ONEWEB-0431             
1 51630U 22012J   24136.85712147 -.00000548  00000+0 -16054-2 0  9999
2 51630  87.8958 187.8055 0002801  98.4320 261.7125 13.10372263109500
ONEWEB-0434             
1 51631U 22012K   24136.68131680  .00000334  00000+0  91984-3 0  9995
2 51631  87.8965 187.8527 0002129 103.5849 256.5516 13.10369729109464
